[{"OBJECT_NAME":"STARLINK-4450","OBJECT_ID":"2022-099AC","EPOCH":"2026-03-09T21:12:08.818560","MEAN_MOTION":15.01260046,"ECCENTRICITY":0.00015385,"INCLINATION":97.6031,"RA_OF_ASC_NODE":190.4191,"ARG_OF_PERICENTER":181.7792,"MEAN_ANOMALY":178.3428,"EPHEMERIS_TYPE":0,"CLASSIFICATION_TYPE":"U","NORAD_CAT_ID":53491,"ELEMENT_SET_NO":999,"REV_AT_EPOCH":19601,"BSTAR":9.4511665e-5,"MEAN_MOTION_DOT":1.156e-5,"MEAN_MOTION_DDOT":0},{"OBJECT_NAME":"COSMOS 375 DEB","OBJECT_ID":"1970-091M","EPOCH":"2026-03-09T21:44:48.131232","MEAN_MOTION":13.05272126,"ECCENTRICITY":0.08929677,"INCLINATION":62.827,"RA_OF_ASC_NODE":15.1073,"ARG_OF_PERICENTER":207.7127,"MEAN_ANOMALY":147.3464,"EPHEMERIS_TYPE":0,"CLASSIFICATION_TYPE":"U","NORAD_CAT_ID":4635,"ELEMENT_SET_NO":999,"REV_AT_EPOCH":62876,"BSTAR":0.00016974909,"MEAN_MOTION_DOT":3.06e-6,"MEAN_MOTION_DDOT":0}]
